FLOCK 4G-25             
1 62646U 25009AP  26068.74572546  .00010373  00000+0  38902-3 0  9990
2 62646  97.4049 151.4141 0000828 316.3151  43.8023 15.27424196 63734
STARLINK-36468          
1 67415U 26005M   26068.50049841  .00038811  00000+0  14119-2 0  9997
2 67415  42.9967 239.3847 0001793 290.0417  70.0242 15.27593567  8666
